OBJECT_NAME,OBJECT_ID,EPOCH,MEAN_MOTION,ECCENTRICITY,INCLINATION,RA_OF_ASC_NODE,ARG_OF_PERICENTER,MEAN_ANOMALY,EPHEMERIS_TYPE,CLASSIFICATION_TYPE,NORAD_CAT_ID,ELEMENT_SET_NO,REV_AT_EPOCH,BSTAR,MEAN_MOTION_DOT,MEAN_MOTION_DDOT
NIMIQ 2,2002-062A,2026-07-06T04:43:14.401344,1.00272866,.00054254,9.4870,56.6945,46.4448,142.6790,0,U,27632,999,4437,0,-.6E-6,0
USA 167,2003-008A,2026-07-06T04:39:37.247904,1.00271503,.00033426,10.9964,43.2329,315.0594,234.0937,0,U,27691,999,696,0,.12E-6,0
USA 169 (MILSTAR-2 4),2003-012A,2026-07-05T21:24:25.524576,1.00270459,.00999039,12.3760,29.6836,10.0596,357.3788,0,U,27711,999,3314,0,-.189E-5,0
ASIASAT 4,2003-014A,2026-07-05T14:16:46.252992,1.00272143,.0002849,4.7501,75.5154,28.9629,180.8459,0,U,27718,999,4548,0,-.21E-5,0
HELLAS-SAT 2,2003-020A,2026-07-06T00:03:28.606752,1.00271836,.00033025,7.3982,67.6581,67.8878,139.2898,0,U,27811,999,4303,0,-.74E-6,0
THURAYA-2,2003-026A,2026-07-06T05:26:50.448192,1.00272368,.00027122,8.8683,31.8903,19.2840,358.7552,0,U,27825,999,8454,0,.134E-5,0
OPTUS C1,2003-028B,2026-07-05T21:25:32.918304,1.00270708,.0005481,6.9332,69.1825,32.6989,299.1438,0,U,27831,999,5324,0,-.141E-5,0
USA 170,2003-040A,2026-07-05T19:05:17.769120,1.00273056,.00005748,10.5364,47.7673,42.5117,144.0376,0,U,27875,999,3318,0,.135E-5,0
GALAXY 13 (HORIZONS-1),2003-044A,2026-07-06T02:48:56.696832,1.00273866,.00017341,1.4672,83.6218,20.2087,72.4975,0,U,27954,999,4676,0,.146E-5,0
YAMAL 202,2003-053A,2026-07-05T21:27:40.214016,1.00272130,.00034216,6.3889,70.7120,27.9730,310.6627,0,U,28089,999,8288,0,-.69E-6,0
UFO 11 (USA 174),2003-057A,2026-07-06T02:10:37.871040,1.00272510,.00026429,8.9445,33.7346,83.2028,275.4074,0,U,28117,999,8263,0,-.95E-6,0
USA 176 (DSP 22),2004-004A,2026-07-06T04:26:39.514848,1.00269712,.00008223,12.0863,25.9237,294.4299,341.1888,0,U,28158,999,3312,0,-.288E-5,0
ABS-4 (MOBISAT-1),2004-007A,2026-07-06T05:31:42.481920,1.00271192,.00045796,6.0884,71.7757,33.2309,323.0663,0,U,28184,999,5252,0,.51E-6,0
INTELSAT 10-02,2004-022A,2026-07-06T01:48:47.463840,1.00272147,.00004466,0.0421,256.0594,294.0127,120.1851,0,U,28358,999,8074,0,.3E-7,0
ANIK F2,2004-027A,2026-07-06T04:42:36.960768,1.00271690,.00038867,3.3334,79.1959,24.3204,140.1983,0,U,28378,999,4145,0,-.37E-6,0
AMC-15,2004-041A,2026-07-06T04:44:21.793344,1.00271419,.00023338,0.0163,343.4060,130.0119,136.8041,0,U,28446,999,7949,0,-.74E-6,0
NSS-10,2005-003A,2026-07-06T05:43:06.712032,1.00271588,.00028885,6.4940,70.2215,35.3509,226.9814,0,U,28526,999,5334,0,-.24E-5,0
INMARSAT 4-F1,2005-009A,2026-07-06T06:05:10.302144,1.00271591,.00027505,5.1924,42.7718,67.4377,83.4312,0,U,28628,999,7786,0,.44E-6,0
DIRECTV 8,2005-019A,2026-07-06T06:23:00.138912,1.00271634,.00031526,0.0186,48.3689,69.9947,142.5891,0,U,28659,999,7726,0,.16E-6,0
GALAXY 28 (G-28),2005-022A,2026-07-06T06:49:16.898304,1.00271594,.00023271,3.3446,78.7038,27.0562,253.7292,0,U,28702,999,5216,0,-.187E-5,0
THAICOM 4,2005-028A,2026-07-06T05:48:25.877952,1.00270941,.00016998,0.2914,85.6571,5.8552,39.3318,0,U,28786,999,5244,0,-.348E-5,0
ANIK F1R,2005-036A,2026-07-06T06:26:26.587392,1.00271689,.00040334,4.3582,76.3458,19.2305,177.9886,0,U,28868,999,4664,0,-.63E-6,0
SYRACUSE 3A,2005-041B,2026-07-06T03:33:51.471360,1.00270077,.00027244,4.6893,75.6064,21.1562,287.4636,0,U,28885,999,7593,0,.141E-5,0
INMARSAT 4-F2,2005-044A,2026-07-05T23:04:34.548672,1.00271568,.00031355,5.1173,43.6513,52.7135,317.2142,0,U,28899,999,7571,0,-.249E-5,0
METEOSAT-9 (MSG-2),2005-049B,2026-07-06T05:26:57.935616,1.00268436,.00021997,9.4015,53.9764,0.5290,357.1641,0,U,28912,999,718,0,.134E-5,0
EUTELSAT 174A,2005-052A,2026-07-05T21:30:39.926880,1.00269564,.00060154,4.2628,76.2994,30.1039,314.1363,0,U,28924,999,5251,0,.21E-6,0
ECHOSTAR 10,2006-003A,2026-07-06T04:42:51.937344,1.00272155,.00013975,0.0241,325.7316,105.1279,173.8633,0,U,28935,999,7465,0,-.41E-6,0
SPAINSAT,2006-007A,2026-07-05T07:07:44.827104,1.00272543,.0004961,0.6071,86.2583,14.5942,259.2025,0,U,28945,999,7439,0,-.204E-5,0
JCSAT-5A,2006-010A,2026-07-06T05:52:03.031392,1.00270888,.00019271,1.1557,84.0295,15.1718,45.0859,0,U,29045,999,7396,0,-.314E-5,0
ASTRA 1KR,2006-012A,2026-07-06T07:02:23.141760,1.00272569,.00034853,0.5200,83.2229,17.3642,308.2803,0,U,29055,999,4588,0,.133E-5,0
GALAXY 16 (G-16),2006-023A,2026-07-06T06:03:53.964288,1.00270987,.0002566,0.0296,136.3285,331.4881,168.3939,0,U,29236,999,7316,0,-.112E-5,0
EUTELSAT 33F,2006-032A,2026-07-06T07:06:22.759200,1.00274225,.00035107,1.7077,82.0401,24.2817,317.6498,0,U,29270,999,4749,0,.169E-5,0
