NIMIQ 2                 
1 27632U 02062A   26187.19669446 -.00000060  00000+0  00000+0 0  9994
2 27632   9.4870  56.6945 0005425  46.4448 142.6790  1.00272866 44370
USA 167                 
1 27691U 03008A   26187.19418111  .00000012  00000+0  00000+0 0  9997
2 27691  10.9964  43.2329 0003342 315.0594 234.0937  1.00271503  6966
USA 169 (MILSTAR-2 4)   
1 27711U 03012A   26186.89196209 -.00000189  00000+0  00000+0 0  9998
2 27711  12.3760  29.6836 0099903  10.0596 357.3788  1.00270459 33144
ASIASAT 4               
1 27718U 03014A   26186.59497978 -.00000210  00000+0  00000+0 0  9996
2 27718   4.7501  75.5154 0002849  28.9629 180.8459  1.00272143 45486
HELLAS-SAT 2            
1 27811U 03020A   26187.00241443 -.00000074  00000+0  00000+0 0  9996
2 27811   7.3982  67.6581 0003302  67.8878 139.2898  1.00271836 43033
THURAYA-2               
1 27825U 03026A   26187.22697278  .00000134  00000+0  00000+0 0  9998
2 27825   8.8683  31.8903 0002712  19.2840 358.7552  1.00272368 84544
OPTUS C1                
1 27831U 03028B   26186.89274211 -.00000141  00000+0  00000+0 0  9996
2 27831   6.9332  69.1825 0005481  32.6989 299.1438  1.00270708 53247
USA 170                 
1 27875U 03040A   26186.79534455  .00000135  00000+0  00000+0 0  9998
2 27875  10.5364  47.7673 0000574  42.5117 144.0376  1.00273056 33184
GALAXY 13 (HORIZONS-1)  
1 27954U 03044A   26187.11732288  .00000146  00000+0  00000+0 0  9993
2 27954   1.4672  83.6218 0001734  20.2087  72.4975  1.00273866 46761
YAMAL 202               
1 28089U 03053A   26186.89421544 -.00000069  00000+0  00000+0 0  9992
2 28089   6.3889  70.7120 0003421  27.9730 310.6627  1.00272130 82885
UFO 11 (USA 174)        
1 28117U 03057A   26187.09071610 -.00000095  00000+0  00000+0 0  9995
2 28117   8.9445  33.7346 0002642  83.2028 275.4074  1.00272510 82630
USA 176 (DSP 22)        
1 28158U 04004A   26187.18517957 -.00000288  00000+0  00000+0 0  9996
2 28158  12.0863  25.9237 0000822 294.4299 341.1888  1.00269712 33125
ABS-4 (MOBISAT-1)       
1 28184U 04007A   26187.23035280  .00000051  00000+0  00000+0 0  9995
2 28184   6.0884  71.7757 0004579  33.2309 323.0663  1.00271192 52520
INTELSAT 10-02          
1 28358U 04022A   26187.07554935  .00000003  00000+0  00000+0 0  9997
2 28358   0.0421 256.0594 0000446 294.0127 120.1851  1.00272147 80746
ANIK F2                 
1 28378U 04027A   26187.19626112 -.00000037  00000+0  00000+0 0  9992
2 28378   3.3334  79.1959 0003886  24.3204 140.1983  1.00271690 41452
AMC-15                  
1 28446U 04041A   26187.19747446 -.00000074  00000+0  00000+0 0  9999
2 28446   0.0163 343.4060 0002333 130.0119 136.8041  1.00271419 79499
NSS-10                  
1 28526U 05003A   26187.23827213 -.00000240  00000+0  00000+0 0  9998
2 28526   6.4940  70.2215 0002888  35.3509 226.9814  1.00271588 53345
INMARSAT 4-F1           
1 28628U 05009A   26187.25359146  .00000044  00000+0  00000+0 0  9995
2 28628   5.1924  42.7718 0002750  67.4377  83.4312  1.00271591 77861
DIRECTV 8               
1 28659U 05019A   26187.26597383  .00000016  00000+0  00000+0 0  9997
2 28659   0.0186  48.3689 0003152  69.9947 142.5891  1.00271634 77266
GALAXY 28 (G-28)        
1 28702U 05022A   26187.28422336 -.00000187  00000+0  00000+0 0  9997
2 28702   3.3446  78.7038 0002327  27.0562 253.7292  1.00271594 52163
THAICOM 4               
1 28786U 05028A   26187.24196618 -.00000348  00000+0  00000+0 0  9991
2 28786   0.2914  85.6571 0001699   5.8552  39.3318  1.00270941 52447
ANIK F1R                
1 28868U 05036A   26187.26836328 -.00000063  00000+0  00000+0 0  9996
2 28868   4.3582  76.3458 0004033  19.2305 177.9886  1.00271689 46649
SYRACUSE 3A             
1 28885U 05041B   26187.14851240  .00000141  00000+0  00000+0 0  9994
2 28885   4.6893  75.6064 0002724  21.1562 287.4636  1.00270077 75937
INMARSAT 4-F2           
1 28899U 05044A   26186.96151098 -.00000249  00000+0  00000+0 0  9995
2 28899   5.1173  43.6513 0003135  52.7135 317.2142  1.00271568 75712
METEOSAT-9 (MSG-2)      
1 28912U 05049B   26187.22705944  .00000134  00000+0  00000+0 0  9993
2 28912   9.4015  53.9764 0002199   0.5290 357.1641  1.00268436  7187
EUTELSAT 174A           
1 28924U 05052A   26186.89629545  .00000021  00000+0  00000+0 0  9999
2 28924   4.2628  76.2994 0006015  30.1039 314.1363  1.00269564 52511
ECHOSTAR 10             
1 28935U 06003A   26187.19643446 -.00000041  00000+0  00000+0 0  9991
2 28935   0.0241 325.7316 0001397 105.1279 173.8633  1.00272155 74654
SPAINSAT                
1 28945U 06007A   26186.29704661 -.00000204  00000+0  00000+0 0  9994
2 28945   0.6071  86.2583 0004961  14.5942 259.2025  1.00272543 74393
JCSAT-5A                
1 29045U 06010A   26187.24447953 -.00000314  00000+0  00000+0 0  9996
2 29045   1.1557  84.0295 0001927  15.1718  45.0859  1.00270888 73961
ASTRA 1KR               
1 29055U 06012A   26187.29332340  .00000133  00000+0  00000+0 0  9995
2 29055   0.5200  83.2229 0003485  17.3642 308.2803  1.00272569 45880
GALAXY 16 (G-16)        
1 29236U 06023A   26187.25270792 -.00000112  00000+0  00000+0 0  9994
2 29236   0.0296 136.3285 0002566 331.4881 168.3939  1.00270987 73166
EUTELSAT 33F            
1 29270U 06032A   26187.29609675  .00000169  00000+0  00000+0 0  9993
2 29270   1.7077  82.0401 0003510  24.2817 317.6498  1.00274225 47497
